start=new Date('2022-03-15T00:00:00.000Z').valueOf();
sats=[{"OBJECT_NAME":"STARLINK-3575","GP_ID":"198772229","TLE_LINE2":"2 51878  53.2189  88.5771 0001102  59.7379 260.2582 15.73251738  2446","OBJECT_TYPE":"PAYLOAD","MEAN_ELEMENT_THEORY":"SGP4","PERIAPSIS":"348.871","ELEMENT_SET_NO":"999","EPHEMERIS_TYPE":"0","MEAN_ANOMALY":"260.2582","CENTER_NAME":"EARTH","FILE":"3359665","BSTAR":"0.00042611000000","NORAD_CAT_ID":"51878","APOAPSIS":"350.354","REF_FRAME":"TEME","COUNTRY_CODE":"US","ECCENTRICITY":"0.00011020","TIME_SYSTEM":"UTC","RA_OF_ASC_NODE":"88.5771","OBJECT_ID":"2022-022AC","SITE":"AFETR","MEAN_MOTION_DDOT":"0.0000000000000","PERIOD":"91.530","EPOCH":"2022-03-14T20:00:01.000224","REV_AT_EPOCH":"244","INCLINATION":"53.2189","LAUNCH_DATE":"2022-03-03","CLASSIFICATION_TYPE":"U","ARG_OF_PERICENTER":"59.7379","DECAY_DATE":null,"TLE_LINE1":"1 51878U 22022AC  22073.83334491  .00059740  00000-0  42611-3 0  9998","SEMIMAJOR_AXIS":"6727.748","MEAN_MOTION":"15.73251738","MEAN_MOTION_DOT":"0.00059740","RCS_SIZE":"LARGE"},{"REF_FRAME":"TEME","COUNTRY_CODE":"US","ECCENTRICITY":"0.00014820","NORAD_CAT_ID":"51879","APOAPSIS":"350.471","MEAN_ANOMALY":"264.6901","CENTER_NAME":"EARTH","FILE":"3359665","BSTAR":"0.00064175000000","EPHEMERIS_TYPE":"0","PERIAPSIS":"348.477","MEAN_ELEMENT_THEORY":"SGP4","ELEMENT_SET_NO":"999","TLE_LINE2":"2 51879  53.2193  88.5715 0001482  58.4628 264.6901 15.73300326  2445","OBJECT_TYPE":"PAYLOAD","OBJECT_NAME":"STARLINK-3572","GP_ID":"198771816","MEAN_MOTION_DOT":"0.00090815","RCS_SIZE":"LARGE","MEAN_MOTION":"15.73300326","ARG_OF_PERICENTER":"58.4628","DECAY_DATE":null,"TLE_LINE1":"1 51879U 22022AD  22073.83334491  .00090815  00000-0  64175-3 0  9996","SEMIMAJOR_AXIS":"6727.609","INCLINATION":"53.2193","CLASSIFICATION_TYPE":"U","LAUNCH_DATE":"2022-03-03","EPOCH":"2022-03-14T20:00:01.000224","REV_AT_EPOCH":"244","PERIOD":"91.527","TIME_SYSTEM":"UTC","RA_OF_ASC_NODE":"88.5715","SITE":"AFETR","MEAN_MOTION_DDOT":"0.0000000000000","OBJECT_ID":"2022-022AD"},{"REV_AT_EPOCH":"244","EPOCH":"2022-03-14T20:00:01.000224","MEAN_MOTION_DDOT":"0.0000000000000","SITE":"AFETR","OBJECT_ID":"2022-022AE","TIME_SYSTEM":"UTC","RA_OF_ASC_NODE":"88.5744","PERIOD":"91.530","MEAN_MOTION":"15.73254160","RCS_SIZE":"LARGE","MEAN_MOTION_DOT":"0.00047621","INCLINATION":"53.2189","LAUNCH_DATE":"2022-03-03","CLASSIFICATION_TYPE":"U","SEMIMAJOR_AXIS":"6727.741","ARG_OF_PERICENTER":"60.2352","TLE_LINE1":"1 51880U 22022AE  22073.83334491  .00047621  00000-0  34101-3 0  9991","DECAY_DATE":null,"ELEMENT_SET_NO":"999","MEAN_ELEMENT_THEORY":"SGP4","PERIAPSIS":"348.767","GP_ID":"198772022","OBJECT_NAME":"STARLINK-3566","OBJECT_TYPE":"PAYLOAD","TLE_LINE2":"2 51880  53.2189  88.5744 0001246  60.2352 261.0558 15.73254160  2440","NORAD_CAT_ID":"51880","APOAPSIS":"350.444","COUNTRY_CODE":"US","ECCENTRICITY":"0.00012460","REF_FRAME":"TEME","EPHEMERIS_TYPE":"0","FILE":"3359665","BSTAR":"0.00034101000000","MEAN_ANOMALY":"261.0558","CENTER_NAME":"EARTH"},{"REV_AT_EPOCH":"241","EPOCH":"2022-03-14T20:00:01.000224","TIME_SYSTEM":"UTC","RA_OF_ASC_NODE":"88.5689","SITE":"AFETR","OBJECT_ID":"2022-022AF","MEAN_MOTION_DDOT":"0.0000000000000","PERIOD":"91.529","MEAN_MOTION":"15.73268719","RCS_SIZE":"MEDIUM","MEAN_MOTION_DOT":"0.00082506","INCLINATION":"53.2193","LAUNCH_DATE":"2022-03-03","CLASSIFICATION_TYPE":"U","ARG_OF_PERICENTER":"52.8382","DECAY_DATE":null,"TLE_LINE1":"1 51881U 22022AF  22073.83334491  .00082506  00000-0  58480-3 0  9999","SEMIMAJOR_AXIS":"6727.699","PERIAPSIS":"348.582","MEAN_ELEMENT_THEORY":"SGP4","ELEMENT_SET_NO":"999","OBJECT_NAME":"STARLINK-3504","GP_ID":"198771919","TLE_LINE2":"2 51881  53.2193  88.5689 0001460  52.8382 271.4948 15.73268719  2412","OBJECT_TYPE":"PAYLOAD","NORAD_CAT_ID":"51881","APOAPSIS":"350.547","REF_FRAME":"TEME","ECCENTRICITY":"0.00014600","COUNTRY_CODE":"US","EPHEMERIS_TYPE":"0","CENTER_NAME":"EARTH","MEAN_ANOMALY":"271.4948","FILE":"3359665","BSTAR":"0.00058480000000"},{"REV_AT_EPOCH":"244","EPOCH":"2022-03-14T20:00:01.000224","PERIOD":"91.528","SITE":"AFETR","MEAN_MOTION_DDOT":"0.0000000000000","OBJECT_ID":"2022-022AG","RA_OF_ASC_NODE":"88.5719","TIME_SYSTEM":"UTC","RCS_SIZE":"LARGE","MEAN_MOTION_DOT":"0.00069131","MEAN_MOTION":"15.73286310","SEMIMAJOR_AXIS":"6727.649","DECAY_DATE":null,"TLE_LINE1":"1 51882U 22022AG  22073.83334491  .00069131  00000-0  49112-3 0  9991","ARG_OF_PERICENTER":"45.4492","CLASSIFICATION_TYPE":"U","LAUNCH_DATE":"2022-03-03","INCLINATION":"53.2190","ELEMENT_SET_NO":"999","PERIAPSIS":"348.565","MEAN_ELEMENT_THEORY":"SGP4","OBJECT_TYPE":"PAYLOAD","TLE_LINE2":"2 51882  53.2190  88.5719 0001411  45.4492 277.0712 15.73286310  2441","GP_ID":"198772126","OBJECT_NAME":"STARLINK-3570","COUNTRY_CODE":"US","ECCENTRICITY":"0.00014110","REF_FRAME":"TEME","APOAPSIS":"350.463","NORAD_CAT_ID":"51882","BSTAR":"0.00049112000000","FILE":"3359665","CENTER_NAME":"EARTH","MEAN_ANOMALY":"277.0712","EPHEMERIS_TYPE":"0"},{"RA_OF_ASC_NODE":"88.5659","TIME_SYSTEM":"UTC","SITE":"AFETR","MEAN_MOTION_DDOT":"0.0000000000000","OBJECT_ID":"2022-022AH","PERIOD":"91.527","EPOCH":"2022-03-14T20:00:01.000224","REV_AT_EPOCH":"241","LAUNCH_DATE":"2022-03-03","CLASSIFICATION_TYPE":"U","INCLINATION":"53.2192","DECAY_DATE":null,"TLE_LINE1":"1 51883U 22022AH  22073.83334491 -.00031281  00000-0 -21821-3 0  9996","ARG_OF_PERICENTER":"47.0832","SEMIMAJOR_AXIS":"6727.570","MEAN_MOTION":"15.73314227","RCS_SIZE":"MEDIUM","MEAN_MOTION_DOT":"-0.00031281","OBJECT_NAME":"STARLINK-3576","GP_ID":"198771506","TLE_LINE2":"2 51883  53.2192  88.5659 0001280  47.0832 278.6419 15.73314227  2414","OBJECT_TYPE":"PAYLOAD","PERIAPSIS":"348.573","MEAN_ELEMENT_THEORY":"SGP4","ELEMENT_SET_NO":"999","EPHEMERIS_TYPE":"0","MEAN_ANOMALY":"278.6419","CENTER_NAME":"EARTH","BSTAR":"-0.00021821000000","FILE":"3359665","APOAPSIS":"350.296","NORAD_CAT_ID":"51883","REF_FRAME":"TEME","COUNTRY_CODE":"US","ECCENTRICITY":"0.00012800"},{"FILE":"3359665","BSTAR":"0.00018028000000","CENTER_NAME":"EARTH","MEAN_ANOMALY":"271.6048","EPHEMERIS_TYPE":"0","COUNTRY_CODE":"US","ECCENTRICITY":"0.00014250","REF_FRAME":"TEME","NORAD_CAT_ID":"51884","APOAPSIS":"350.428","OBJECT_TYPE":"PAYLOAD","TLE_LINE2":"2 51884  53.2189  88.5696 0001425  52.0527 271.6048 15.73302137  2418","GP_ID":"198771712","OBJECT_NAME":"STARLINK-3577","ELEMENT_SET_NO":"999","MEAN_ELEMENT_THEORY":"SGP4","PERIAPSIS":"348.510","SEMIMAJOR_AXIS":"6727.604","ARG_OF_PERICENTER":"52.0527","DECAY_DATE":null,"TLE_LINE1":"1 51884U 22022AJ  22073.83334491  .00024866  00000-0  18028-3 0  9991","INCLINATION":"53.2189","LAUNCH_DATE":"2022-03-03","CLASSIFICATION_TYPE":"U","MEAN_MOTION_DOT":"0.00024866","RCS_SIZE":"LARGE","MEAN_MOTION":"15.73302137","PERIOD":"91.527","OBJECT_ID":"2022-022AJ","SITE":"AFETR","MEAN_MOTION_DDOT":"0.0000000000000","TIME_SYSTEM":"UTC","RA_OF_ASC_NODE":"88.5696","EPOCH":"2022-03-14T20:00:01.000224","REV_AT_EPOCH":"241"},{"MEAN_MOTION":"15.73315971","MEAN_MOTION_DOT":"-0.00133581","RCS_SIZE":"LARGE","INCLINATION":"53.2193","CLASSIFICATION_TYPE":"U","LAUNCH_DATE":"2022-03-03","ARG_OF_PERICENTER":"54.7433","TLE_LINE1":"1 51885U 22022AK  22073.83334491 -.00133581  00000-0 -95773-3 0  9991","DECAY_DATE":null,"SEMIMAJOR_AXIS":"6727.565","REV_AT_EPOCH":"241","EPOCH":"2022-03-14T20:00:01.000224","TIME_SYSTEM":"UTC","RA_OF_ASC_NODE":"88.5632","OBJECT_ID":"2022-022AK","SITE":"AFETR","MEAN_MOTION_DDOT":"0.0000000000000","PERIOD":"91.526","NORAD_CAT_ID":"51885","APOAPSIS":"350.402","REF_FRAME":"TEME","COUNTRY_CODE":"US","ECCENTRICITY":"0.00014460","EPHEMERIS_TYPE":"0","CENTER_NAME":"EARTH","MEAN_ANOMALY":"272.5356","FILE":"3359665","BSTAR":"-0.00095773000000","MEAN_ELEMENT_THEORY":"SGP4","PERIAPSIS":"348.457","ELEMENT_SET_NO":"999","OBJECT_NAME":"STARLINK-3584","GP_ID":"198771610","TLE_LINE2":"2 51885  53.2193  88.5632 0001446  54.7433 272.5356 15.73315971  2414","OBJECT_TYPE":"PAYLOAD"},{"ELEMENT_SET_NO":"999","PERIAPSIS":"348.589","MEAN_ELEMENT_THEORY":"SGP4","OBJECT_TYPE":"PAYLOAD","TLE_LINE2":"2 51886  53.2190  88.5670 0001444  39.3074 285.7912 15.73270052  2449","GP_ID":"198772230","OBJECT_NAME":"STARLINK-3565","COUNTRY_CODE":"US","ECCENTRICITY":"0.00014440","REF_FRAME":"TEME","NORAD_CAT_ID":"51886","APOAPSIS":"350.532","FILE":"3359665","BSTAR":"0.00047835000000","MEAN_ANOMALY":"285.7912","CENTER_NAME":"EARTH","EPHEMERIS_TYPE":"0","EPOCH":"2022-03-14T20:00:01.000224","REV_AT_EPOCH":"244","PERIOD":"91.529","SITE":"AFETR","MEAN_MOTION_DDOT":"0.0000000000000","OBJECT_ID":"2022-022AL","TIME_SYSTEM":"UTC","RA_OF_ASC_NODE":"88.5670","RCS_SIZE":"LARGE","MEAN_MOTION_DOT":"0.00067255","MEAN_MOTION":"15.73270052","SEMIMAJOR_AXIS":"6727.695","ARG_OF_PERICENTER":"39.3074","TLE_LINE1":"1 51886U 22022AL  22073.83334491  .00067255  00000-0  47835-3 0  9990","DECAY_DATE":null,"INCLINATION":"53.2190","LAUNCH_DATE":"2022-03-03","CLASSIFICATION_TYPE":"U"},{"LAUNCH_DATE":"2022-03-03","CLASSIFICATION_TYPE":"U","INCLINATION":"53.2193","TLE_LINE1":"1 51887U 22022AM  22073.83334491  .00045649  00000-0  32710-3 0  9990","DECAY_DATE":null,"ARG_OF_PERICENTER":"52.9571","SEMIMAJOR_AXIS":"6727.731","MEAN_MOTION":"15.73257621","RCS_SIZE":"LARGE","MEAN_MOTION_DOT":"0.00045649","RA_OF_ASC_NODE":"88.5625","TIME_SYSTEM":"UTC","SITE":"AFETR","MEAN_MOTION_DDOT":"0.0000000000000","OBJECT_ID":"2022-022AM","PERIOD":"91.530","EPOCH":"2022-03-14T20:00:01.000224","REV_AT_EPOCH":"241","EPHEMERIS_TYPE":"0","CENTER_NAME":"EARTH","MEAN_ANOMALY":"274.6694","BSTAR":"0.00032710000000","FILE":"3359665","APOAPSIS":"350.445","NORAD_CAT_ID":"51887","REF_FRAME":"TEME","COUNTRY_CODE":"US","ECCENTRICITY":"0.00012620","OBJECT_NAME":"STARLINK-3551","GP_ID":"198771817","TLE_LINE2":"2 51887  53.2193  88.5625 0001262  52.9571 274.6694 15.73257621  2412","OBJECT_TYPE":"PAYLOAD","MEAN_ELEMENT_THEORY":"SGP4","PERIAPSIS":"348.747","ELEMENT_SET_NO":"999"}];
